{
    "links": {
        "self": "http://www.neowsapp.com/rest/v1/neo/3843862?api_key=iIulBulltgU6a56xZRHN4H3l9WmuAYTsLGpBGhQ2"
    },
    "id": "3843862",
    "neo_reference_id": "3843862",
    "name": "(2019 QR8)",
    "designation": "2019 QR8",
    "nasa_jpl_url": "http://ssd.jpl.nasa.gov/sbdb.cgi?sstr=3843862",
    "absolute_magnitude_h": 27.9,
    "estimated_diameter": {
        "kilometers": {
            "estimated_diameter_min": 0.0069912523,
            "estimated_diameter_max": 0.0156329154
        },
        "meters": {
            "estimated_diameter_min": 6.9912523225,
            "estimated_diameter_max": 15.6329154409
        },
        "miles": {
            "estimated_diameter_min": 0.0043441614,
            "estimated_diameter_max": 0.0097138403
        },
        "feet": {
            "estimated_diameter_min": 22.9371802696,
            "estimated_diameter_max": 51.289094295
        }
    },
    "is_potentially_hazardous_asteroid": false,
    "close_approach_data": [
        {
            "close_approach_date": "2019-08-26",
            "close_approach_date_full": "2019-Aug-26 08:51",
            "epoch_date_close_approach": 1566809460000,
            "relative_velocity": {
                "kilometers_per_second": "12.980642473",
                "kilometers_per_hour": "46730.3129028943",
                "miles_per_hour": "29036.3991479123"
            },
            "miss_distance": {
                "astronomical": "0.0020666875",
                "lunar": "0.8039414375",
                "kilometers": "309172.047955625",
                "miles": "192110.602312625"
            },
            "orbiting_body": "Earth"
        },
        {
            "close_approach_date": "2019-08-26",
            "close_approach_date_full": "2019-Aug-26 10:16",
            "epoch_date_close_approach": 1566814560000,
            "relative_velocity": {
                "kilometers_per_second": "13.6265394714",
                "kilometers_per_hour": "49055.5420970281",
                "miles_per_hour": "30481.2061435673"
            },
            "miss_distance": {
                "astronomical": "0.0039327698",
                "lunar": "1.5298474522",
                "kilometers": "588333.985280326",
                "miles": "365573.7865714588"
            },
            "orbiting_body": "Moon"
        }
    ],
    "orbital_data": {
        "orbit_id": "1",
        "orbit_determination_date": "2019-09-16 03:42:02",
        "first_observation_date": "2019-08-28",
        "last_observation_date": "2019-08-29",
        "data_arc_in_days": 1,
        "observations_used": 7,
        "orbit_uncertainty": "8",
        "minimum_orbit_intersection": ".00207559",
        "jupiter_tisserand_invariant": "3.209",
        "epoch_osculation": "2458724.5",
        "eccentricity": ".5856101111039153",
        "semi_major_axis": "2.417764599014752",
        "inclination": "16.96138294116095",
        "ascending_node_longitude": "152.7156456858548",
        "orbital_period": "1373.154638802861",
        "perihelion_distance": "1.00189720356261",
        "perihelion_argument": "166.070225902445",
        "aphelion_distance": "3.833631994466894",
        "perihelion_time": "2458710.643953503391",
        "mean_anomaly": "3.632640197849833",
        "mean_motion": ".2621700352072903",
        "equinox": "J2000",
        "orbit_class": {
            "orbit_class_type": "APO",
            "orbit_class_description": "Near-Earth asteroid orbits which cross the Earth’s orbit similar to that of 1862 Apollo",
            "orbit_class_range": "a (semi-major axis) > 1.0 AU; q (perihelion) < 1.017 AU"
        }
    },
    "is_sentry_object": false
}